OBJECT_NAME,OBJECT_ID,EPOCH,MEAN_MOTION,ECCENTRICITY,INCLINATION,RA_OF_ASC_NODE,ARG_OF_PERICENTER,MEAN_ANOMALY,EPHEMERIS_TYPE,CLASSIFICATION_TYPE,NORAD_CAT_ID,ELEMENT_SET_NO,REV_AT_EPOCH,BSTAR,MEAN_MOTION_DOT,MEAN_MOTION_DDOT
COSMOS 2251 DEB,1993-036AKV,2025-03-30T19:54:31.490496,15.15160365,.0057456,73.9368,287.7952,231.7241,127.8778,0,U,35451,999,86039,.16719E-2,.32801E-3,0
COSMOS 2251 DEB,1993-036AKX,2025-03-31T19:57:25.507008,14.36635654,.0072604,74.0070,131.9814,322.1707,37.4355,0,U,35453,999,82542,.1222E-2,.3681E-4,0
COSMOS 2251 DEB,1993-036AKZ,2025-04-02T14:28:17.419296,14.46750284,.0108871,74.0302,50.7794,218.3093,141.0298,0,U,35455,999,82865,.1988E-2,.7724E-4,0
COSMOS 2251 DEB,1993-036ALA,2025-04-01T03:54:27.216864,14.63379032,.0072597,73.9544,252.7342,160.4491,199.9487,0,U,35456,999,62129,.42028E-2,.22613E-3,0
COSMOS 2251 DEB,1993-036ALD,2025-04-02T07:18:21.027456,14.36954077,.0017345,73.8712,299.9844,294.4624,65.4719,0,U,35459,999,54706,.44225E-3,.1285E-4,0
COSMOS 2251 DEB,1993-036ALG,2025-03-31T03:18:40.690944,14.27357116,.0088003,74.0407,13.9108,114.0226,247.0165,0,U,35462,999,62717,.23357E-2,.5943E-4,0
COSMOS 2251 DEB,1993-036ALK,2025-04-01T00:30:53.273088,14.43348203,.0065869,73.9983,313.5677,175.7258,184.4477,0,U,35465,999,83551,.66116E-3,.2262E-4,0
COSMOS 2251 DEB,1993-036ALP,2025-03-31T10:08:47.508576,14.49495475,.0077607,74.0159,145.5286,1.4371,358.6996,0,U,35469,999,84397,.19169E-3,.734E-5,0
COSMOS 2251 DEB,1993-036ALV,2025-04-01T07:05:36.979296,14.63875055,.0024889,74.0235,298.5931,84.2186,276.1818,0,U,35475,999,61872,.26654E-2,.13992E-3,0
COSMOS 2251 DEB,1993-036ALW,2025-04-02T10:25:23.323008,14.69049104,.0019541,73.9801,197.3255,259.7588,220.9057,0,U,35476,999,84145,.33778E-2,.1991E-3,0
COSMOS 2251 DEB,1993-036ALX,2025-03-29T17:14:23.639424,13.82614632,.0279725,73.9022,257.0364,311.7623,45.9890,0,U,35580,999,58689,.16926E-2,.2454E-4,0
COSMOS 2251 DEB,1993-036AMA,2025-04-01T18:11:49.384608,13.54768590,.038422,73.9165,265.0440,337.1560,21.2839,0,U,35583,999,78958,.59473E-3,.631E-5,0
COSMOS 2251 DEB,1993-036AMC,2025-04-02T14:57:06.475968,13.74195347,.0310289,73.9743,52.2955,16.3074,156.9459,0,U,35585,999,60571,.68067E-2,.907E-4,0
COSMOS 2251 DEB,1993-036AMD,2025-04-02T10:02:59.156736,13.51686790,.0404982,74.0229,349.7557,277.5968,200.8219,0,U,35586,999,56945,.78279E-3,.832E-5,0
COSMOS 2251 DEB,1993-036AME,2025-04-01T13:49:13.463328,14.70456435,.0102034,74.0063,194.9466,85.4594,275.8224,0,U,35587,999,62594,.44684E-3,.2902E-4,0
COSMOS 2251 DEB,1993-036AML,2025-04-02T05:18:56.907072,14.24273350,.0103623,74.0860,26.0394,99.9460,261.3401,0,U,35593,999,81440,.19363E-2,.4704E-4,0
COSMOS 2251 DEB,1993-036AMM,2025-04-02T10:21:50.101632,14.80543964,.0036948,73.8092,257.5018,57.7964,302.6785,0,U,35594,999,84413,.29817E-2,.23164E-3,0
COSMOS 2251 DEB,1993-036AMV,2025-04-02T11:03:28.178784,15.25356347,.0108082,74.0007,4.5826,140.9613,336.7740,0,U,35602,999,86203,.7996E-3,.23912E-3,0
COSMOS 2251 DEB,1993-036AMY,2025-04-02T12:12:01.891008,14.92904275,.0037637,73.8807,144.0140,126.8277,233.6368,0,U,35605,999,62142,.56236E-2,.59597E-3,0
COSMOS 2251 DEB,1993-036AMZ,2025-04-02T14:19:26.746176,13.40637136,.0457265,73.8115,55.6048,300.2129,55.4432,0,U,35606,999,57633,.19823E-2,.1991E-4,0
COSMOS 2251 DEB,1993-036ANE,2025-04-01T00:25:36.851232,14.65772087,.0028641,74.0218,314.7274,100.5240,259.9157,0,U,35611,999,83535,.32277E-2,.1772E-3,0
COSMOS 2251 DEB,1993-036ANH,2025-04-02T06:41:31.873632,14.63744688,.0080213,73.9577,99.5640,9.6423,350.6260,0,U,35614,999,84002,.20619E-2,.11246E-3,0
COSMOS 2251 DEB,1993-036ANL,2025-03-31T23:54:30.860928,14.41851243,.0073773,73.9667,205.1555,57.5198,303.3060,0,U,35645,999,83530,.32811E-2,.11077E-3,0
COSMOS 2251 DEB,1993-036ANM,2025-04-02T09:53:29.082624,13.40283632,.046395,73.8684,99.4313,252.5407,176.3209,0,U,35646,999,78450,.13279E-2,.1341E-4,0
COSMOS 2251 DEB,1993-036ANN,2025-04-02T13:57:29.643840,14.42167740,.0050183,74.0234,46.7635,211.0341,148.7848,0,U,35647,999,63998,.14455E-2,.4807E-4,0
COSMOS 2251 DEB,1993-036ANR,2025-04-01T22:40:11.577216,14.75808694,.0022971,74.0473,159.8865,294.2323,238.7977,0,U,35650,999,83866,.22516E-2,.15505E-3,0
COSMOS 2251 DEB,1993-036APB,2025-04-01T17:00:17.665056,14.48912889,.0017646,74.0404,251.5299,104.0475,267.5898,0,U,35660,999,62176,.91842E-3,.3458E-4,0
COSMOS 2251 DEB,1993-036APC,2025-04-02T08:12:45.470880,14.82220375,.0096604,74.0142,224.8416,33.2742,327.4457,0,U,35661,999,84094,.1223E-2,.10563E-3,0
COSMOS 2251 DEB,1993-036APE,2025-03-13T22:34:11.051616,14.60943811,.0012503,73.9799,290.2609,110.5686,249.6823,0,U,35663,999,82853,.2797E-2,.13716E-3,0
COSMOS 2251 DEB,1993-036APJ,2025-04-01T17:46:50.697120,14.57245523,.0020771,74.0579,264.9609,32.7657,327.4790,0,U,35667,999,67085,.18735E-2,.8475E-4,0
COSMOS 2251 DEB,1993-036APK,2025-04-02T10:31:09.527808,14.63009960,.008435,74.0485,348.2457,160.4397,200.0041,0,U,35668,999,83927,.4357E-3,.232E-4,0
COSMOS 2251 DEB,1993-036APL,2025-03-30T01:00:28.923552,13.56445058,.0389369,73.8569,219.4775,15.6564,345.6190,0,U,35669,999,57294,.10428E-2,.1178E-4,0
COSMOS 2251 DEB,1993-036APM,2025-04-02T14:02:01.586112,14.86360010,.0040928,73.8955,217.2576,240.9828,118.7247,0,U,35670,999,84046,.32161E-2,.28877E-3,0
COSMOS 2251 DEB,1993-036APN,2025-04-02T13:44:41.083008,14.47861954,.0039716,74.0197,195.6643,69.8976,301.8485,0,U,35671,999,83084,.40843E-3,.15E-4,0
COSMOS 2251 DEB,1993-036APR,2025-04-02T09:14:06.822816,14.50858164,.0103204,74.0608,75.3877,189.1699,170.7582,0,U,35674,999,82418,.19854E-2,.8368E-4,0
COSMOS 2251 DEB,1993-036APW,2025-04-02T10:13:08.404608,13.79497186,.0293585,74.0084,9.5492,272.5286,84.2262,0,U,35701,999,58650,.23935E-2,.338E-4,0
COSMOS 2251 DEB,1993-036APY,2025-04-02T12:39:53.794944,14.85868112,.007464,74.0433,189.5349,327.8999,31.7645,0,U,35703,999,62835,.1322E-2,.12097E-3,0
COSMOS 2251 DEB,1993-036AQA,2025-04-01T04:34:28.278048,14.62935038,.0030356,74.2788,261.8476,298.1209,61.6892,0,U,35705,999,82178,.49593E-2,.25622E-3,0
COSMOS 2251 DEB,1993-036AQB,2025-04-02T07:42:52.123104,13.65153795,.034905,73.8868,122.8994,219.3720,138.1549,0,U,35706,999,58589,.16162E-2,.1964E-4,0
COSMOS 2251 DEB,1993-036AQG,2025-04-02T10:00:54.770112,14.62865745,.0086159,74.0488,348.0733,156.1882,204.3310,0,U,35711,999,84051,.42601E-3,.2265E-4,0
COSMOS 2251 DEB,1993-036AQM,2025-04-02T09:15:20.782080,14.59635845,.0091164,73.9950,320.7628,224.2483,309.9812,0,U,35716,999,83915,.2023E-3,.987E-5,0
COSMOS 2251 DEB,1993-036AQN,2025-03-26T09:41:04.990272,14.36024474,.0081667,74.1646,334.6325,264.0536,95.1305,0,U,35717,999,70345,.30324E-2,.9142E-4,0
COSMOS 2251 DEB,1993-036AQP,2025-03-28T18:43:46.829568,14.63649069,.0013292,74.0329,268.9650,35.7801,324.4255,0,U,35718,999,62045,.33718E-2,.17573E-3,0
COSMOS 2251 DEB,1993-036AQS,2025-03-31T19:09:37.509120,14.31537515,.0154143,73.9484,287.8737,130.5629,230.9059,0,U,35721,999,54123,.31496E-2,.953E-4,0
COSMOS 2251 DEB,1993-036AQV,2025-04-02T07:03:35.460288,14.57394214,.0062955,74.0333,66.6182,283.5521,75.8635,0,U,35724,999,83821,.63428E-3,.2925E-4,0
COSMOS 2251 DEB,1993-036ARA,2025-04-01T01:33:55.179936,15.11742701,.0026016,74.0177,338.2156,182.2922,246.2294,0,U,35729,999,84349,.42516E-2,.73793E-3,0
COSMOS 2251 DEB,1993-036ARD,2025-04-02T10:15:58.057056,14.63766685,.0078808,74.0402,344.6478,169.5817,190.7008,0,U,35759,999,62413,.48804E-3,.263E-4,0
COSMOS 2251 DEB,1993-036ARR,2025-04-02T06:22:11.246880,14.07415988,.0225782,74.1701,35.1554,40.7297,321.0477,0,U,35771,999,79273,.13469E-1,.28678E-3,0
COSMOS 2251 DEB,1993-036ART,2025-04-02T10:24:27.573408,14.60092248,.0050817,74.0063,107.7678,326.3763,33.4180,0,U,35773,999,83125,.1177E-2,.5737E-4,0
COSMOS 2251 DEB,1993-036ARX,2025-04-02T01:13:30.995616,13.40963391,.0451792,73.7745,9.5185,301.5534,65.6055,0,U,35777,999,76270,.9925E-3,.975E-5,0
COSMOS 2251 DEB,1993-036ASE,2025-04-01T14:33:02.537568,14.49334464,.0041411,74.0395,208.4788,40.1846,320.2363,0,U,35784,999,83062,.53693E-3,.2046E-4,0
COSMOS 2251 DEB,1993-036ASG,2025-04-01T13:57:44.246304,14.62773550,.0039731,74.0157,174.7048,2.4127,357.7223,0,U,35786,999,69673,.14751E-2,.7587E-4,0
COSMOS 2251 DEB,1993-036ASK,2025-04-02T05:27:34.280640,14.35759683,.0048644,74.0402,31.4431,195.8775,164.0856,0,U,35789,999,57574,.23527E-3,.663E-5,0
COSMOS 2251 DEB,1993-036ASP,2025-04-02T13:44:37.962240,14.71792881,.0009218,74.0431,196.6249,340.9375,30.4580,0,U,35793,999,62050,.35203E-2,.22051E-3,0
COSMOS 2251 DEB,1993-036ASW,2025-04-02T10:02:35.517696,13.87319852,.0260926,73.8423,125.5780,256.2116,100.9850,0,U,35824,999,80699,.2035E-2,.3109E-4,0
COSMOS 2251 DEB,1993-036ASX,2025-03-17T16:08:40.165440,13.69747941,.035718,74.1008,226.0986,25.8208,336.0259,0,U,35825,999,79431,.106E-2,.1432E-4,0
COSMOS 2251 DEB,1993-036ATB,2025-03-31T16:14:44.956608,14.69305844,.0010994,74.0304,237.5088,20.5270,339.6340,0,U,35829,999,84006,.35436E-2,.20974E-3,0
COSMOS 2251 DEB,1993-036ATC,2025-04-02T11:30:48.989952,14.21992871,.0119508,73.8681,8.3985,27.0113,333.7183,0,U,35830,999,57647,.53248E-2,.12647E-3,0
COSMOS 2251 DEB,1993-036ATG,2025-04-01T15:17:13.629984,14.12722124,.0111766,73.9329,38.3998,250.9919,284.7389,0,U,35834,999,62660,.52494E-3,.1007E-4,0
COSMOS 2251 DEB,1993-036ATH,2025-03-29T22:37:56.384544,13.81712333,.0298971,74.0652,341.4585,182.2578,177.7221,0,U,35835,999,79857,.15125E-2,.225E-4,0
COSMOS 2251 DEB,1993-036ATJ,2025-04-02T07:11:09.382560,14.64787808,.0028719,74.0365,304.4920,77.2030,283.2344,0,U,35836,999,59787,.28191E-2,.1513E-3,0
COSMOS 2251 DEB,1993-036ATK,2025-03-31T18:24:44.860032,13.60670507,.0424278,73.7264,272.4772,228.8718,139.5729,0,U,35837,999,54491,.70194E-2,.9622E-4,0
COSMOS 2251 DEB,1993-036ATM,2025-04-02T10:08:16.153152,15.03730357,.0023532,74.2248,129.5538,346.9549,73.7399,0,U,35839,999,84707,.49028E-2,.68291E-3,0
COSMOS 2251 DEB,1993-036ATN,2025-03-31T18:38:05.413920,14.34564632,.0120258,73.9320,271.4234,227.8077,131.2818,0,U,35840,999,81616,.32278E-2,.9873E-4,0
